STARLINK-2228           
1 48576U 21041Z   24069.90371094  .00005035  00000+0  35652-3 0  9998
2 48576  53.0540 142.7546 0001019  98.4462 261.6643 15.06411424155560
STARLINK-2231           
1 48577U 21041AA  24069.91667824 -.00016732  00000+0 -11074-2 0  9998
2 48577  53.0525 167.9660 0001100  89.3795 163.3780 15.06388024  5315
STARLINK-2232           
1 48578U 21041AB  24069.54208253  .00005589  00000+0  39359-3 0  9998
2 48578  53.0542 169.8881 0001623  96.7345 263.3829 15.06422331155146
STARLINK-2233           
1 48579U 21041AC  24069.91667824  .00796773  00000+0  43038-1 0  9992
2 48579  53.0542 167.6299 0001239  77.0687  49.2307 15.11835843  5812
STARLINK-2234           
1 48580U 21041AD  24069.93320256  .00002186  00000+0  16555-3 0  9995
2 48580  53.0535 142.6317 0001367  90.1636 269.9510 15.06418080155561
STARLINK-2235           
1 48581U 21041AE  24069.89357830 -.00000250  00000+0  21362-5 0  9994
2 48581  53.0557 132.8072 0001420  83.1617 276.9534 15.06416401155701
STARLINK-2236           
1 48582U 21041AF  24069.87516291 -.00005476  00000+0 -34911-3 0  9999
2 48582  53.0537 133.0477 0001404  95.3913 264.7236 15.06387128155693
STARLINK-2237           
1 48583U 21041AG  24069.48216301 -.00003971  00000+0 -24800-3 0  9990
2 48583  53.0552 179.6473 0001536  87.9490 272.1674 15.06375727155002
STARLINK-2238           
1 48584U 21041AH  24069.58904320  .00012965  00000+0  88722-3 0  9991
2 48584  53.0531 179.1645 0001147  61.4026 298.7079 15.06417808155017
STARLINK-2240           
1 48585U 21041AJ  24069.60009528  .00001038  00000+0  88597-4 0  9991
2 48585  53.0542 179.1175 0001234  90.2210 269.8921 15.06399734155012
STARLINK-2241           
1 48586U 21041AK  24069.72541050 -.00003005  00000+0 -18295-3 0  9991
2 48586  53.0544 178.5527 0001619  86.0077 274.1097 15.06392394155030
STARLINK-2242           
1 48587U 21041AL  24069.59638675  .00001943  00000+0  14920-3 0  9995
2 48587  53.0535 179.1337 0001425  81.5265 278.5885 15.06424557155413
STARLINK-2244           
1 48588U 21041AM  24069.57888709  .00006829  00000+0  47646-3 0  9998
2 48588  53.0545 169.2513 0001300  96.1946 263.9191 15.06432909155150
STARLINK-2245           
1 48589U 21041AN  24069.57151699  .00000152  00000+0  29117-4 0  9997
2 48589  53.0546 169.2453 0001540 103.5444 256.5717 15.06400263155157
STARLINK-2248           
1 48591U 21041AQ  24069.63751460  .00519914  00000+0  29213-1 0  9994
2 48591  53.0543 169.1057 0001255 111.7181 248.3943 15.10652989156068
STARLINK-2249           
1 48592U 21041AR  24069.51900882  .00001239  00000+0  10201-3 0  9991
2 48592  53.0535 179.7158 0001499  76.8947 283.2209 15.06414722155002
STARLINK-2250           
1 48593U 21041AS  24069.57061155  .00001018  00000+0  87196-4 0  9992
2 48593  53.0543 179.2485 0001209  74.8263 285.2859 15.06397662155015
STARLINK-2251           
1 48594U 21041AT  24069.46648093  .00013530  00000+0  92449-3 0  9991
2 48594  53.0542 149.8021 0001341  84.5225 275.5917 15.06439704155423
STARLINK-2252           
1 48595U 21041AU  24069.48584373 -.00000311  00000+0 -19968-5 0  9996
2 48595  53.0548 179.6300 0001314  86.0025 274.1115 15.06393532156273
STARLINK-2253           
1 48596U 21041AV  24069.50792737  .00006935  00000+0  48377-3 0  9995
2 48596  53.0545 179.5298 0001685  85.5534 274.5648 15.06416241155464
STARLINK-2255           
1 48597U 21041AW  24069.58163920  .00005340  00000+0  37688-3 0  9992
2 48597  53.0544 179.1988 0001420  99.7103 260.4046 15.06422744156284
STARLINK-2256           
1 48598U 21041AX  24069.86452418 -.00000269  00000+0  26376-5 0  9997
2 48598  53.0519 119.5461 0000972  93.7427 266.3701 15.69713295156337
STARLINK-2274           
1 48599U 21041AY  24069.91667824  .01123454  00000+0  58054-1 0  9999
2 48599  53.0534 152.6193 0001761  72.9160 181.0955 15.12933695  5518
STARLINK-2275           
1 48600U 21041AZ  24069.51622349  .00008380  00000+0  58027-3 0  9992
2 48600  53.0531 169.4920 0001238  92.5934 267.5196 15.06435238156414
STARLINK-2713           
1 48602U 21041BB  24069.51207751  .00015336  00000+0  10455-2 0  9991
2 48602  53.0541 154.5130 0001132  97.7464 262.3653 15.06425785156612
STARLINK-2714           
1 48603U 21041BC  24069.49132265  .00006156  00000+0  43161-3 0  9997
2 48603  53.0554 149.6059 0001028  92.0252 268.0855 15.06417638156692
STARLINK-2757           
1 48604U 21041BD  24069.49317845  .00000798  00000+0  72455-4 0  9992
2 48604  53.0545 179.5982 0000993 101.2323 258.8778 15.06415056156279
FALCON 9 DEB            
1 48607U 21041BG  24069.85999806  .00002517  00000+0  21155-3 0  9999
2 48607  53.0357 226.9269 0013770 128.5393 231.6830 15.01766841154322
FALCON 9 DEB            
1 48608U 21041BH  24069.71747726  .00005462  00000+0  43048-3 0  9994
2 48608  53.0314 231.8909 0012875 141.8427 218.3474 15.02138777154231
FALCON 9 DEB            
1 48609U 21041BJ  24069.70283461  .00004849  00000+0  37946-3 0  9993
2 48609  53.0289 225.2201 0011964 126.3638 233.8454 15.02653850154329
FALCON 9 DEB            
1 48610U 21041BK  24069.41728261  .00006286  00000+0  47341-3 0  9992
2 48610  53.0261 222.6998 0014327 125.2914 234.9415 15.03620035154336
STARLINK-2758           
1 48638U 21044A   24069.91667824  .00973209  00000+0  41834-1 0  9994
2 48638  53.0512 152.3843 0001349  72.2957 130.1029 15.19379940  5630
STARLINK-2739           
1 48639U 21044B   24069.49735098  .00000306  00000+0  39461-4 0  9992
2 48639  53.0529 154.5872 0001164  98.2114 261.9007 15.06399796153723
STARLINK-2736           
1 48640U 21044C   24069.49002076  .00010981  00000+0  75506-3 0  9996
2 48640  53.0543 154.8884 0001258  71.9252 288.1874 15.06393277153712
STARLINK-2754           
1 48641U 21044D   24069.50241106 -.00002117  00000+0 -12330-3 0  9998
2 48641  53.0522 159.5543 0001336  89.1206 270.9935 15.06394818153653
STARLINK-2646           
1 48642U 21044E   24069.51714815  .00017621  00000+0  11979-2 0  9993
2 48642  53.0540 159.4989 0001520  77.5421 282.5738 15.06431031153651
STARLINK-2704           
1 48643U 21044F   24069.49778863  .00003525  00000+0  25534-3 0  9995
2 48643  53.0558 159.5712 0001735 100.3940 259.7245 15.06414285153656
STARLINK-2695           
1 48644U 21044G   24069.49505745  .00005259  00000+0  37153-3 0  9999
2 48644  53.0535 159.5902 0001462  81.1160 278.9995 15.06416045153651
STARLINK-2733           
1 48645U 21044H   24069.49134804  .00014374  00000+0  98116-3 0  9998
2 48645  53.0543 159.6036 0001217  92.4552 267.6577 15.06427054153651
STARLINK-2732           
1 48646U 21044J   24069.62034811  .00017705  00000+0  12030-2 0  9992
2 48646  53.0544 159.0239 0001229 101.7249 258.3878 15.06447138153670
STARLINK-2691           
1 48647U 21044K   24069.55032200  .00013635  00000+0  93146-3 0  9991
2 48647  53.0537 159.3412 0001304  91.5355 268.5783 15.06440156153667
STARLINK-2521           
1 48648U 21044L   24069.63144270  .00002480  00000+0  18523-3 0  9994
2 48648  53.0547 159.1412 0001474  94.9430 265.1727 15.06420823153677
STARLINK-2673           
1 48649U 21044M   24069.54666848  .00017428  00000+0  11862-2 0  9991
2 48649  53.0547 159.3570 0001326 102.2314 257.8823 15.06393082153654
STARLINK-2672           
1 48650U 21044N   24069.54294343  .00013998  00000+0  95621-3 0  9994
2 48650  53.0541 159.3729 0001321  73.6491 286.4644 15.06422128154494
STARLINK-2731           
1 48651U 21044P   24069.93736007  .00005822  00000+0  40933-3 0  9999
2 48651  53.0543 157.6023 0000933  88.7298 271.3798 15.06408078153710
STARLINK-2727           
1 48652U 21044Q   24069.53557415  .00005629  00000+0  39618-3 0  9993
2 48652  53.0560 159.4084 0001390  88.1509 271.9639 15.06430826153653
STARLINK-2720           
1 48653U 21044R   24069.53187921  .00004885  00000+0  34640-3 0  9998
2 48653  53.0549 159.4233 0001467  87.6785 272.4372 15.06421131154494
STARLINK-2651           
1 48654U 21044S   24069.52820472  .00016390  00000+0  11153-2 0  9990
2 48654  53.0547 159.4391 0001398  73.6636 286.4507 15.06444336153655
STARLINK-2657           
1 48655U 21044T   24069.52451262  .00017083  00000+0  11621-2 0  9998
2 48655  53.0534 159.4572 0001383  93.1240 266.9907 15.06428099154493
STARLINK-2701           
1 48656U 21044U   24069.52082914  .00009148  00000+0  63159-3 0  9990
2 48656  53.0538 159.4710 0001420  85.9494 274.1657 15.06437758153656
STARLINK-2734           
1 48657U 21044V   24069.61569195  .00012910  00000+0  88369-3 0  9993
2 48657  53.0541 158.6910 0001224  89.6713 270.4416 15.06411784153676
STARLINK-2647           
1 48658U 21044W   24069.51346123  .00008623  00000+0  59654-3 0  9998
2 48658  53.0526 159.5045 0001414  91.5556 268.5595 15.06435209153659
STARLINK-2717           
1 48659U 21044X   24069.50977682  .00018686  00000+0  12684-2 0  9999
2 48659  53.0531 159.5241 0001372  79.5060 280.6084 15.06446692153659
STARLINK-2688           
1 48660U 21044Y   24069.50608252  .00001639  00000+0  12889-3 0  9993
2 48660  53.0540 159.5413 0001312  85.7309 274.3830 15.06410999154494
STARLINK-2708           
1 48661U 21044Z   24069.90508778  .00005602  00000+0  39452-3 0  9999
2 48661  53.0549 147.7474 0001418  86.6602 273.4549 15.06417512153857
STARLINK-2726           
1 48662U 21044AA  24069.50331849  .00002080  00000+0  15839-3 0  9999
2 48662  53.0537 149.5521 0001297  95.0882 265.0255 15.06428282153797
STARLINK-2667           
1 48663U 21044AB  24069.49963783  .00021382  00000+0  14487-2 0  9999
2 48663  53.0541 149.5672 0001510  94.8006 265.3155 15.06432835153794
STARLINK-2709           
1 48664U 21044AC  24069.49596507  .00009727  00000+0  67048-3 0  9997
2 48664  53.0531 149.5852 0001456  93.9728 266.1428 15.06428354153797
STARLINK-2653           
1 48665U 21044AD  24069.91667824  .01084537  00000+0  44441-1 0  9999
2 48665  53.0521 147.3283 0001294  77.4363 161.3006 15.21184412  5631
